[{"OBJECT_NAME":"STARLINK-34751","OBJECT_ID":"2025-189R","EPOCH":"2026-03-09T15:55:03.467712","MEAN_MOTION":15.30199121,"ECCENTRICITY":0.0001088,"INCLINATION":53.1582,"RA_OF_ASC_NODE":206.7976,"ARG_OF_PERICENTER":66.0869,"MEAN_ANOMALY":294.0246,"EPHEMERIS_TYPE":0,"CLASSIFICATION_TYPE":"U","NORAD_CAT_ID":65338,"ELEMENT_SET_NO":999,"REV_AT_EPOCH":3110,"BSTAR":0.00081044971,"MEAN_MOTION_DOT":0.0002372,"MEAN_MOTION_DDOT":0},{"OBJECT_NAME":"PEGASUS DEB","OBJECT_ID":"1994-029AG","EPOCH":"2026-03-09T11:16:42.963744","MEAN_MOTION":15.37636263,"ECCENTRICITY":0.0031206,"INCLINATION":82.0362,"RA_OF_ASC_NODE":86.2933,"ARG_OF_PERICENTER":155.6019,"MEAN_ANOMALY":204.671,"EPHEMERIS_TYPE":0,"CLASSIFICATION_TYPE":"U","NORAD_CAT_ID":23986,"ELEMENT_SET_NO":999,"REV_AT_EPOCH":61542,"BSTAR":0.00061808813,"MEAN_MOTION_DOT":0.00023279,"MEAN_MOTION_DDOT":0}]
